BEIDOU-3 M14 (C33)      
1 43623U 18072B   26129.20348764 -.00000020  00000+0  00000+0 0  9991
2 43623  56.5941  63.9398 0006695 345.6638  14.3071  1.86231536 51927
BEIDOU-3 M16 (C35)      
1 43647U 18078A   26129.35942515 -.00000037  00000+0  00000+0 0  9991
2 43647  54.1265 301.3466 0007924  39.4697 320.5792  1.86232384 51430
BEIDOU-3 M15 (C34)      
1 43648U 18078B   26128.95177469 -.00000037  00000+0  00000+0 0  9995
2 43648  54.1224 301.3614 0005076  51.5027 308.5335  1.86232655 51440
BEIDOU-3 G1 (C59)       
1 43683U 18085A   26129.78754234 -.00000097  00000+0  00000+0 0  9991
2 43683   2.9768  98.3855 0007658 337.7753 234.9310  1.00273289 27673
BEIDOU-3 M17 (C36)      
1 43706U 18093A   26129.24918965  .00000044  00000+0  00000+0 0  9991
2 43706  54.1671 183.6178 0009134 291.2507 160.2904  1.86228609 50811
BEIDOU-3 M18 (C37)      
1 43707U 18093B   26127.36477020  .00000032  00000+0  00000+0 0  9992
2 43707  54.1680 183.6737 0007248 323.3441  36.6857  1.86226701 50781
BEIDOU-3 IGSO-1 (C38)   
1 44204U 19023A   26129.65679304 -.00000217  00000+0  00000+0 0  9998
2 44204  58.6428  38.0490 0024009 234.3721 307.0515  1.00251812  6827
BEIDOU-2 G8 (C01)       
1 44231U 19027A   26129.78442234 -.00000237  00000+0  00000+0 0  9998
2 44231   1.5606  74.4096 0011081 282.0758 298.0100  1.00274787 25695
BEIDOU-3 IGSO-2 (C39)   
1 44337U 19035A   26129.51664542 -.00000073  00000+0  00000+0 0  9991
2 44337  55.2384 159.2020 0039521 215.2739 158.7000  1.00279427 25288
BEIDOU-3 M24 (C46)      
1 44542U 19061A   26129.04479801  .00000042  00000+0  00000+0 0  9993
2 44542  54.3946 184.0482 0008103   3.6991 356.3835  1.86229217 45065
BEIDOU-3 M23 (C45)      
1 44543U 19061B   26129.25158262  .00000044  00000+0  00000+0 0  9994
2 44543  54.3931 184.0098 0005129 344.8604  65.7036  1.86227742 45075
BEIDOU-3 IGSO-3 (C40)   
1 44709U 19073A   26120.85038409 -.00000212  00000+0  00000+0 0  9996
2 44709  54.8842 281.4069 0042404 188.8195 170.9972  1.00251230 23982
BEIDOU-3 M22 (C44)      
1 44793U 19078A   26129.42102106 -.00000037  00000+0  00000+0 0  9997
2 44793  53.9723 301.1911 0007198  47.1122 312.9393  1.86227546 43925
BEIDOU-3 M21 (C43)      
1 44794U 19078B   26129.56104247 -.00000037  00000+0  00000+0 0  9991
2 44794  53.9454 301.1483 0004996  44.9088 315.1228  1.86228037 43939
BEIDOU-3 M19 (C41)      
1 44864U 19090A   26128.45489995 -.00000021  00000+0  00000+0 0  9999
2 44864  56.5258  64.1039 0019341 296.1478 239.2902  1.86231845 43492
BEIDOU-3 M20 (C42)      
1 44865U 19090B   26129.38368757 -.00000020  00000+0  00000+0 0  9994
2 44865  56.5282  64.1078 0017025 308.8996 218.8417  1.86231698 43496
BEIDOU-3 G2 (C60)       
1 45344U 20017A   26129.77986622 -.00000130  00000+0  00000+0 0  9990
2 45344   2.7872  46.7304 0002956   6.7743 174.8735  1.00271085 22879
BEIDOU-3 G3 (C61)       
1 45807U 20040A   26129.80044802 -.00000344  00000+0  00000+0 0  9996
2 45807   2.3531  67.3342 0003546 332.6006 226.3120  1.00277704 21684
BEIDOU-3 G4 (C62)       
1 56564U 23066A   26129.82482867 -.00000274  00000+0  00000+0 0  9990
2 56564   0.5382 322.4113 0003543 159.2746 182.9106  1.00267791 11003
BEIDOU-3 M28 (C50)      
1 58654U 23207A   26129.10128089 -.00000022  00000+0  00000+0 0  9994
2 58654  55.7199  63.6215 0004320 328.5820  31.3823  1.86229786 16114
BEIDOU-3 M26 (C48)      
1 58655U 23207B   26128.89877583 -.00000023  00000+0  00000+0 0  9991
2 58655  55.7218  63.6147 0004584 308.3454  51.6033  1.86229772 16092
BEIDOU-3 M25 (C47)      
1 61186U 24168B   26128.72217630 -.00000038  00000+0  00000+0 0  9990
2 61186  54.5099 303.6138 0003219 315.5987  43.1750  1.86230280 11049
BEIDOU-3 M27 (C49)      
1 61187U 24168C   26129.05472400 -.00000038  00000+0  00000+0 0  9996
2 61187  54.5049 303.5853 0002347  41.6147 315.1318  1.86230358  8521
